ONEWEB-0387             
1 49313U 21090AL  22244.58335648 -.00014663  00000+0 -36155-1 0  9990
2 49313  87.9388 189.9060 0001871  81.1935 126.0847 13.20768550  1301
ONEWEB-0388             
1 49314U 21090AM  22244.91667824  .00015496  00000+0  38609-1 0  9991
2 49314  87.9237 220.0557 0001944  86.2534 270.0822 13.19724534 45128
ONEWEB-0389             
1 50469U 21132A   22244.91667824  .00031781  00000+0  81561-1 0  9991
2 50469  87.9028 280.9493 0001553 113.0731  63.8515 13.17628279 37076
ONEWEB-0390             
1 50470U 21132B   22244.91667824  .00031757  00000+0  81502-1 0  9991
2 50470  87.9030 280.9492 0001484 105.1221  64.3826 13.17626182 37071
ONEWEB-0391             
1 50471U 21132C   22244.91667824  .00031746  00000+0  81471-1 0  9995
2 50471  87.9029 280.9210 0001704 106.8997  55.4296 13.17628750 37076
ONEWEB-0392             
1 50472U 21132D   22244.58335648  .00018388  00000+0  47234-1 0  9991
2 50472  87.9044 281.0150 0001653  92.5506  83.3916 13.17646131 37060
ONEWEB-0393             
1 50473U 21132E   22244.91667824  .00029460  00000+0  75609-1 0  9993
2 50473  87.9034 280.9466 0001632  87.2486 195.8923 13.17639017 37098
ONEWEB-0394             
1 50474U 21132F   22244.58335648 -.00007499  00000+0 -72994-3 0  9999
2 50474  87.2198 268.5121 0004332 122.9473 325.9801 14.92792681  1303
ONEWEB-0395             
1 50475U 21132G   22244.91667824  .00007410  00000+0  20858-1 0  9992
2 50475  87.8962 296.2567 0001661 100.8270 271.7166 13.11403445 35556
ONEWEB-0396             
1 50476U 21132H   22244.58335648 -.00002821  00000+0 -27619-3 0  9999
2 50476  87.2229 268.6102 0003327  83.9980 127.8504 14.92781933  1309
ONEWEB-0397             
1 50477U 21132J   22244.58335648 -.00005890  00000+0 -57419-3 0  9990
2 50477  87.2240 268.6383 0005531 114.7960 288.4264 14.92762398  1305
ONEWEB-0398             
1 50478U 21132K   22244.91667824  .00006450  00000+0  18152-1 0  9992
2 50478  87.8865 296.2474 0001295  95.4969  70.5982 13.11413794 35453
ONEWEB-0399             
1 50479U 21132L   22244.91667824  .00005400  00000+0  15192-1 0  9998
2 50479  87.8854 296.2616 0002427  98.8609 130.7630 13.11410795 35442
ONEWEB-0400             
1 50480U 21132M   22244.58335648 -.00003887  00000+0 -37935-3 0  9999
2 50480  87.2185 268.4501 0004309  95.9307 250.5663 14.92807536  1301
ONEWEB-0401             
1 50481U 21132N   22244.58335648 -.00004006  00000+0 -39135-3 0  9998
2 50481  87.2211 268.5442 0003760 118.8011  72.0148 14.92758783  1308
ONEWEB-0402             
1 50482U 21132P   22244.58335648 -.00003810  00000+0 -37183-3 0  9992
2 50482  87.2214 268.5562 0004071 117.4825 231.8134 14.92814282  1306
ONEWEB-0403             
1 50483U 21132Q   22244.58335648 -.00006062  00000+0 -59110-3 0  9999
2 50483  87.2188 268.4774 0002547 123.6170 278.5725 14.92755072  1304
ONEWEB-0404             
1 50484U 21132R   22244.91667824  .00007013  00000+0  19742-1 0  9991
2 50484  87.8814 296.2240 0002126 121.9162 229.4790 13.11402771 35533
ONEWEB-0405             
1 50485U 21132S   22244.58335648  .00000305  00000+0  26786-4 0  9997
2 50485  87.2961 270.5857 0004477  74.4174 254.5564 14.92801168  1305
ONEWEB-0406             
1 50486U 21132T   22244.58335648 -.00002674  00000+0 -26178-3 0  9995
2 50486  87.2233 268.6138 0006501  84.8938 131.3421 14.92798473  1309
ONEWEB-0407             
1 50487U 21132U   22244.58335648 -.00007661  00000+0 -74572-3 0  9998
2 50487  87.2153 268.3606 0005596  75.6260  50.4413 14.92786385  1308
ONEWEB-0409             
1 50488U 21132V   22244.58335648  .00038015  00000+0  10682+0 0  9992
2 50488  87.8730 296.3098 0001654 117.7059  74.4926 13.11395357  1307
ONEWEB-0412             
1 50489U 21132W   22244.58335648 -.00004212  00000+0 -41068-3 0  9993
2 50489  87.2199 268.5162 0004346  98.5986 260.4392 14.92823033  1301
ONEWEB-0413             
1 50490U 21132X   22244.58335648 -.00007809  00000+0 -75923-3 0  9997
2 50490  87.2141 268.3086 0004153 123.5736 319.8496 14.92833321  1306
ONEWEB-0414             
1 50491U 21132Y   22244.58335648 -.00007625  00000+0 -74180-3 0  9998
2 50491  87.2183 268.4565 0005751  80.2466  35.4728 14.92807373  1307
ONEWEB-0417             
1 50492U 21132Z   22244.58335648 -.00005318  00000+0 -51836-3 0  9999
2 50492  87.2215 268.5568 0006481  79.2490  87.1326 14.92781673  1306
ONEWEB-0418             
1 50493U 21132AA  22244.58335648 -.00007169  00000+0 -69781-3 0  9994
2 50493  87.2250 268.6720 0005545 112.3249 336.3169 14.92793235  1309
ONEWEB-0419             
1 50494U 21132AB  22244.58335648 -.00002892  00000+0 -28294-3 0  9997
2 50494  87.2128 268.2980 0005474  75.5360 197.3411 14.92800498  1308
ONEWEB-0420             
1 50495U 21132AC  22244.58335648 -.00003371  00000+0 -32937-3 0  9990
2 50495  87.2072 268.1165 0004339 124.1524 148.8542 14.92809621  1306
ONEWEB-0421             
1 50496U 21132AD  22244.58335648 -.00006767  00000+0 -65985-3 0  9992
2 50496  87.2110 268.2167 0003467 136.3770  23.3514 14.92737024  1305
ONEWEB-0424             
1 50497U 21132AE  22244.58335648 -.00006888  00000+0 -67042-3 0  9993
2 50497  87.2282 268.7515 0005018 100.4618  14.5318 14.92803229  1300
ONEWEB-0426             
1 50498U 21132AF  22244.58335648 -.00006276  00000+0 -61157-3 0  9996
2 50498  87.2152 268.3616 0003301  97.2585 306.0022 14.92773273  1300
ONEWEB-0427             
1 50499U 21132AG  22244.58335648 -.00003465  00000+0 -33819-3 0  9998
2 50499  87.2083 268.1511 0003778  69.3464 231.1906 14.92837314  1306
ONEWEB-0429             
1 50500U 21132AH  22244.58335648 -.00042344  00000+0 -41289-2 0  9999
2 50500  87.2122 268.2507 0004182 120.1500 286.8103 14.92797894  1300
ONEWEB-0430             
1 50501U 21132AJ  22244.58335648 -.00003192  00000+0 -31192-3 0  9991
2 50501  87.2254 268.6923 0005254  86.9708 251.1729 14.92810862  1303
ONEWEB-0432             
1 50502U 21132AK  22244.58335648 -.00003175  00000+0 -31036-3 0  9990
2 50502  87.2102 268.2138 0004993 133.5192 136.7923 14.92805575  1304
ONEWEB-0440             
1 50503U 21132AL  22244.58335648 -.00004393  00000+0 -42824-3 0  9991
2 50503  87.2141 268.3156 0003895 117.3172 237.1836 14.92823372  1301
ONEWEB-0450             
1 50504U 21132AM  22244.58335648 -.00004409  00000+0 -43041-3 0  9992
2 50504  87.2236 268.6229 0004813  96.4843  82.3529 14.92766969  1301
ONEWEB-0410             
1 51622U 22012A   22244.91667824  .00029122  00000+0  27182-2 0  9997
2 51622  87.1825 288.9682 0004278 103.3961  82.3012 14.94057201 31706
ONEWEB-0411             
1 51623U 22012B   22244.91667824 -.00016570  00000+0 -47588-1 0  9994
2 51623  87.8781 311.5355 0001482 114.5900  51.1138 13.10374760 29277
ONEWEB-0415             
1 51624U 22012C   22244.58335648  .00043542  00000+0  12416+0 0  9991
2 51624  87.8846 311.5853 0001343  89.9912 318.9784 13.10347729 29239
ONEWEB-0416             
1 51625U 22012D   22244.58335648  .00041056  00000+0  11709+0 0  9994
2 51625  87.8810 311.5741 0001947  92.6576 264.8398 13.10352618 29282
ONEWEB-0422             
1 51626U 22012E   22244.91667824  .00023682  00000+0  22098-2 0  9997
2 51626  87.2383 290.2922 0001556  44.3340   4.2738 14.94097083 31704
ONEWEB-0423             
1 51627U 22012F   22244.91667824  .00029071  00000+0  27164-2 0  9995
2 51627  87.1837 289.0052 0003306  85.9592  90.1421 14.94017494 31704
ONEWEB-0425             
1 51628U 22012G   22244.58335648  .00040834  00000+0  11647+0 0  9991
2 51628  87.8829 311.5821 0002430 109.2760 204.2511 13.10345750 29275
ONEWEB-0428             
1 51629U 22012H   22244.58335648  .00043091  00000+0  12288+0 0  9992
2 51629  87.8822 311.5781 0002325  83.5340 318.0525 13.10345618 29233
ONEWEB-0431             
1 51630U 22012J   22244.58335648  .00042411  00000+0  12094+0 0  9994
2 51630  87.8816 311.5440 0001548  67.5899 201.9057 13.10351677 29295
ONEWEB-0434             
1 51631U 22012K   22244.58335648  .00041185  00000+0  11746+0 0  9995
2 51631  87.8836 311.5647 0002139  84.0781 214.7268 13.10350982 29270
ONEWEB-0435             
1 51632U 22012L   22244.58335648  .00043238  00000+0  12329+0 0  9995
2 51632  87.8775 311.5249 0002388  76.9540 177.8573 13.10350170 29255
ONEWEB-0436             
1 51633U 22012M   22244.91667824  .00026037  00000+0  24293-2 0  9991
2 51633  87.1795 288.9096 0003954 117.8556 199.1435 14.94086119 31721
ONEWEB-0438             
1 51634U 22012N   22244.58335648  .00040666  00000+0  11599+0 0  9997
2 51634  87.8780 311.5217 0002125 104.4768 231.1275 13.10348537 29309
ONEWEB-0439             
1 51635U 22012P   22244.91667824 -.00017005  00000+0 -48840-1 0  9993
2 51635  87.8798 311.4908 0001938  96.7538 355.6542 13.10373026 29326
ONEWEB-0442             
1 51636U 22012Q   22244.91667824  .00025147  00000+0  23466-2 0  9996
2 51636  87.1774 288.8508 0002597  61.3393 315.5180 14.94087684 31721
ONEWEB-0443             
1 51637U 22012R   22244.91667824  .00026201  00000+0  24445-2 0  9997
2 51637  87.1796 288.9117 0005173  95.5831 217.3541 14.94083017 31728
ONEWEB-0444             
1 51638U 22012S   22244.58335648  .00041289  00000+0  11776+0 0  9990
2 51638  87.8821 311.5653 0002059  93.3592 271.5919 13.10348116 29294
ONEWEB-0445             
1 51639U 22012T   22244.58335648  .00042828  00000+0  12212+0 0  9997
2 51639  87.8815 311.5657 0001432 114.8233 147.2585 13.10353940 29296
ONEWEB-0446             
1 51640U 22012U   22244.58335648  .00041571  00000+0  11856+0 0  9996
2 51640  87.8824 311.5772 0001572  97.3360 274.9459 13.10348931 29299
ONEWEB-0448             
1 51641U 22012V   22244.58335648  .00040849  00000+0  11652+0 0  9998
2 51641  87.8818 311.5753 0002051  93.1124 257.0768 13.10343029  1307
ONEWEB-0449             
1 51642U 22012W   22244.58335648  .00040677  00000+0  11602+0 0  9993
2 51642  87.8833 311.5679 0002061 112.3147 215.8583 13.10348674 29276
